CCSDS_OMM_VERS = 2.0
CREATION_DATE  = 
ORIGINATOR     = 

OBJECT_NAME    = SL-14 R/B
OBJECT_ID      = 1986-046B
CENTER_NAME    = EARTH
REF_FRAME      = TEME
TIME_SYSTEM    = UTC
MEAN_ELEMENT_THEORY = SGP/SGP4

EPOCH          = 2025-11-21T16:45:09.335808
MEAN_MOTION    = 14.85454427
ECCENTRICITY   = .002205
INCLINATION    = 82.4823
RA_OF_ASC_NODE = 182.1852
ARG_OF_PERICENTER = 222.3327
MEAN_ANOMALY   = 137.6188

EPHEMERIS_TYPE = 0
CLASSIFICATION_TYPE = U
NORAD_CAT_ID   = 16792
ELEMENT_SET_NO = 999
REV_AT_EPOCH   = 11037
BSTAR          = .55088E-4
MEAN_MOTION_DOT = .501E-5
MEAN_MOTION_DDOT = 0

CCSDS_OMM_VERS = 2.0
CREATION_DATE  = 
ORIGINATOR     = 

OBJECT_NAME    = SL-14 R/B
OBJECT_ID      = 1986-055B
CENTER_NAME    = EARTH
REF_FRAME      = TEME
TIME_SYSTEM    = UTC
MEAN_ELEMENT_THEORY = SGP/SGP4

EPOCH          = 2025-11-21T19:59:07.025280
MEAN_MOTION    = 14.85499962
ECCENTRICITY   = .0018314
INCLINATION    = 82.5220
RA_OF_ASC_NODE = 228.0150
ARG_OF_PERICENTER = 333.6225
MEAN_ANOMALY   = 93.2004

EPHEMERIS_TYPE = 0
CLASSIFICATION_TYPE = U
NORAD_CAT_ID   = 16882
ELEMENT_SET_NO = 999
REV_AT_EPOCH   = 10335
BSTAR          = .67677E-4
MEAN_MOTION_DOT = .61E-5
MEAN_MOTION_DDOT = 0

CCSDS_OMM_VERS = 2.0
CREATION_DATE  = 
ORIGINATOR     = 

OBJECT_NAME    = AJISAI (EGS)
OBJECT_ID      = 1986-061A
CENTER_NAME    = EARTH
REF_FRAME      = TEME
TIME_SYSTEM    = UTC
MEAN_ELEMENT_THEORY = SGP/SGP4

EPOCH          = 2025-11-21T20:58:35.226048
MEAN_MOTION    = 12.44514119
ECCENTRICITY   = .0011222
INCLINATION    = 50.0106
RA_OF_ASC_NODE = 64.8765
ARG_OF_PERICENTER = 13.4299
MEAN_ANOMALY   = 104.3544

EPHEMERIS_TYPE = 0
CLASSIFICATION_TYPE = U
NORAD_CAT_ID   = 16908
ELEMENT_SET_NO = 999
REV_AT_EPOCH   = 45457
BSTAR          = -.1007E-3
MEAN_MOTION_DOT = -.112E-5
MEAN_MOTION_DDOT = 0

CCSDS_OMM_VERS = 2.0
CREATION_DATE  = 
ORIGINATOR     = 

OBJECT_NAME    = COSMOS 1812
OBJECT_ID      = 1987-003A
CENTER_NAME    = EARTH
REF_FRAME      = TEME
TIME_SYSTEM    = UTC
MEAN_ELEMENT_THEORY = SGP/SGP4

EPOCH          = 2025-11-21T10:04:51.225312
MEAN_MOTION    = 15.70995830
ECCENTRICITY   = .0006112
INCLINATION    = 82.4868
RA_OF_ASC_NODE = 315.0134
ARG_OF_PERICENTER = 119.8647
MEAN_ANOMALY   = 240.3223

EPHEMERIS_TYPE = 0
CLASSIFICATION_TYPE = U
NORAD_CAT_ID   = 17295
ELEMENT_SET_NO = 999
REV_AT_EPOCH   = 12730
BSTAR          = .62935E-3
MEAN_MOTION_DOT = .79378E-3
MEAN_MOTION_DDOT = 0

CCSDS_OMM_VERS = 2.0
CREATION_DATE  = 
ORIGINATOR     = 

OBJECT_NAME    = SL-14 R/B
OBJECT_ID      = 1987-024B
CENTER_NAME    = EARTH
REF_FRAME      = TEME
TIME_SYSTEM    = UTC
MEAN_ELEMENT_THEORY = SGP/SGP4

EPOCH          = 2025-11-21T16:52:42.299904
MEAN_MOTION    = 14.85994855
ECCENTRICITY   = .0016753
INCLINATION    = 82.5291
RA_OF_ASC_NODE = 194.2144
ARG_OF_PERICENTER = 257.7222
MEAN_ANOMALY   = 102.2119

EPHEMERIS_TYPE = 0
CLASSIFICATION_TYPE = U
NORAD_CAT_ID   = 17567
ELEMENT_SET_NO = 999
REV_AT_EPOCH   = 7209
BSTAR          = .55747E-4
MEAN_MOTION_DOT = .512E-5
MEAN_MOTION_DDOT = 0

CCSDS_OMM_VERS = 2.0
CREATION_DATE  = 
ORIGINATOR     = 

OBJECT_NAME    = COSMOS 1833
OBJECT_ID      = 1987-027A
CENTER_NAME    = EARTH
REF_FRAME      = TEME
TIME_SYSTEM    = UTC
MEAN_ELEMENT_THEORY = SGP/SGP4

EPOCH          = 2025-11-21T20:01:29.006400
MEAN_MOTION    = 14.13018208
ECCENTRICITY   = .0021646
INCLINATION    = 70.9130
RA_OF_ASC_NODE = 192.7238
ARG_OF_PERICENTER = 1.1730
MEAN_ANOMALY   = 358.9438

EPHEMERIS_TYPE = 0
CLASSIFICATION_TYPE = U
NORAD_CAT_ID   = 17589
ELEMENT_SET_NO = 999
REV_AT_EPOCH   = 99507
BSTAR          = -.26683E-4
MEAN_MOTION_DOT = -.98E-6
MEAN_MOTION_DDOT = 0

CCSDS_OMM_VERS = 2.0
CREATION_DATE  = 
ORIGINATOR     = 

OBJECT_NAME    = SL-16 R/B
OBJECT_ID      = 1987-027B
CENTER_NAME    = EARTH
REF_FRAME      = TEME
TIME_SYSTEM    = UTC
MEAN_ELEMENT_THEORY = SGP/SGP4

EPOCH          = 2025-11-21T20:07:38.947008
MEAN_MOTION    = 14.17146998
ECCENTRICITY   = .000726
INCLINATION    = 70.9999
RA_OF_ASC_NODE = 143.7601
ARG_OF_PERICENTER = 281.1515
MEAN_ANOMALY   = 78.8792

EPHEMERIS_TYPE = 0
CLASSIFICATION_TYPE = U
NORAD_CAT_ID   = 17590
ELEMENT_SET_NO = 999
REV_AT_EPOCH   = 6
BSTAR          = .23472E-4
MEAN_MOTION_DOT = -.1E-7
MEAN_MOTION_DDOT = 0

CCSDS_OMM_VERS = 2.0
CREATION_DATE  = 
ORIGINATOR     = 

OBJECT_NAME    = SL-14 R/B
OBJECT_ID      = 1987-038B
CENTER_NAME    = EARTH
REF_FRAME      = TEME
TIME_SYSTEM    = UTC
MEAN_ELEMENT_THEORY = SGP/SGP4

EPOCH          = 2025-11-21T17:02:38.046048
MEAN_MOTION    = 14.85232525
ECCENTRICITY   = .0019916
INCLINATION    = 82.5035
RA_OF_ASC_NODE = 38.5052
ARG_OF_PERICENTER = 157.5460
MEAN_ANOMALY   = 202.6632

EPHEMERIS_TYPE = 0
CLASSIFICATION_TYPE = U
NORAD_CAT_ID   = 17912
ELEMENT_SET_NO = 999
REV_AT_EPOCH   = 6320
BSTAR          = .61675E-4
MEAN_MOTION_DOT = .555E-5
MEAN_MOTION_DDOT = 0

CCSDS_OMM_VERS = 2.0
CREATION_DATE  = 
ORIGINATOR     = 

OBJECT_NAME    = COSMOS 1844
OBJECT_ID      = 1987-041A
CENTER_NAME    = EARTH
REF_FRAME      = TEME
TIME_SYSTEM    = UTC
MEAN_ELEMENT_THEORY = SGP/SGP4

EPOCH          = 2025-11-21T20:12:47.396736
MEAN_MOTION    = 14.14527521
ECCENTRICITY   = .0031112
INCLINATION    = 70.8995
RA_OF_ASC_NODE = 261.6453
ARG_OF_PERICENTER = 189.2928
MEAN_ANOMALY   = 170.7622

EPHEMERIS_TYPE = 0
CLASSIFICATION_TYPE = U
NORAD_CAT_ID   = 17973
ELEMENT_SET_NO = 999
REV_AT_EPOCH   = 98833
BSTAR          = .62532E-4
MEAN_MOTION_DOT = .72E-6
MEAN_MOTION_DDOT = 0

CCSDS_OMM_VERS = 2.0
CREATION_DATE  = 
ORIGINATOR     = 

OBJECT_NAME    = SL-14 R/B
OBJECT_ID      = 1987-055B
CENTER_NAME    = EARTH
REF_FRAME      = TEME
TIME_SYSTEM    = UTC
MEAN_ELEMENT_THEORY = SGP/SGP4

EPOCH          = 2025-11-21T20:10:16.842144
MEAN_MOTION    = 14.85488942
ECCENTRICITY   = .0020995
INCLINATION    = 82.4986
RA_OF_ASC_NODE = 90.6825
ARG_OF_PERICENTER = 14.2068
MEAN_ANOMALY   = 345.9734

EPHEMERIS_TYPE = 0
CLASSIFICATION_TYPE = U
NORAD_CAT_ID   = 18153
ELEMENT_SET_NO = 999
REV_AT_EPOCH   = 5392
BSTAR          = .67384E-4
MEAN_MOTION_DOT = .608E-5
MEAN_MOTION_DDOT = 0

CCSDS_OMM_VERS = 2.0
CREATION_DATE  = 
ORIGINATOR     = 

OBJECT_NAME    = COSMOS 1867
OBJECT_ID      = 1987-060A
CENTER_NAME    = EARTH
REF_FRAME      = TEME
TIME_SYSTEM    = UTC
MEAN_ELEMENT_THEORY = SGP/SGP4

EPOCH          = 2025-11-21T20:29:20.002272
MEAN_MOTION    = 14.31481442
ECCENTRICITY   = .0013665
INCLINATION    = 65.0102
RA_OF_ASC_NODE = 248.6901
ARG_OF_PERICENTER = 268.9597
MEAN_ANOMALY   = 90.9922

EPHEMERIS_TYPE = 0
CLASSIFICATION_TYPE = U
NORAD_CAT_ID   = 18187
ELEMENT_SET_NO = 999
REV_AT_EPOCH   = 450
BSTAR          = .40861E-4
MEAN_MOTION_DOT = .9E-7
MEAN_MOTION_DDOT = 0

