SL-14 R/B               
1 16792U 86046B   25325.69802472  .00000501  00000+0  55088-4 0  9999
2 16792  82.4823 182.1852 0022050 222.3327 137.6188 14.85454427110371
SL-14 R/B               
1 16882U 86055B   25325.83272020  .00000610  00000+0  67677-4 0  9993
2 16882  82.5220 228.0150 0018314 333.6225  93.2004 14.85499962103352
AJISAI (EGS)            
1 16908U 86061A   25325.87401882 -.00000112  00000+0 -10070-3 0  9996
2 16908  50.0106  64.8765 0011222  13.4299 104.3544 12.44514119454578
COSMOS 1812             
1 17295U 87003A   25325.42003733  .00079378  00000+0  62935-3 0  9992
2 17295  82.4868 315.0134 0006112 119.8647 240.3223 15.70995830127301
SL-14 R/B               
1 17567U 87024B   25325.70326736  .00000512  00000+0  55747-4 0  9997
2 17567  82.5291 194.2144 0016753 257.7222 102.2119 14.85994855 72091
COSMOS 1833             
1 17589U 87027A   25325.83436350 -.00000098  00000+0 -26683-4 0  9990
2 17589  70.9130 192.7238 0021646   1.1730 358.9438 14.13018208995073
SL-16 R/B               
1 17590U 87027B   25325.83864522 -.00000001  00000+0  23472-4 0  9994
2 17590  70.9999 143.7601 0007260 281.1515  78.8792 14.17146998    64
SL-14 R/B               
1 17912U 87038B   25325.71016257  .00000555  00000+0  61675-4 0  9995
2 17912  82.5035  38.5052 0019916 157.5460 202.6632 14.85232525 63201
COSMOS 1844             
1 17973U 87041A   25325.84221524  .00000072  00000+0  62532-4 0  9992
2 17973  70.8995 261.6453 0031112 189.2928 170.7622 14.14527521988339
SL-14 R/B               
1 18153U 87055B   25325.84047271  .00000608  00000+0  67384-4 0  9998
2 18153  82.4986  90.6825 0020995  14.2068 345.9734 14.85488942 53920
COSMOS 1867             
1 18187U 87060A   25325.85370373  .00000009  00000+0  40861-4 0  9990
2 18187  65.0102 248.6901 0013665 268.9597  90.9922 14.31481442  4500
